start=new Date('2021-10-20T00:00:00.000Z').valueOf();
sats=[{"GP_ID":"187630967","NORAD_CAT_ID":"47827","EPHEMERIS_TYPE":"0","LAUNCH_DATE":"2021-03-11","INCLINATION":"53.0561","FILE":"3172644","MEAN_MOTION":"15.06397689","TLE_LINE1":"1 47827U 21018AS  21292.55196868  .00000561  00000-0  56542-4 0  9992","PERIOD":"95.592","SEMIMAJOR_AXIS":"6925.356","MEAN_MOTION_DOT":"0.00000561","RCS_SIZE":"LARGE","TIME_SYSTEM":"UTC","OBJECT_NAME":"STARLINK-2413","APOAPSIS":"548.459","RA_OF_ASC_NODE":"233.8939","CLASSIFICATION_TYPE":"U","SITE":"AFETR","MEAN_ELEMENT_THEORY":"SGP4","OBJECT_TYPE":"PAYLOAD","EPOCH":"2021-10-19T13:14:50.093952","OBJECT_ID":"2021-018AS","COUNTRY_CODE":"US","MEAN_MOTION_DDOT":"0.0000000000000","MEAN_ANOMALY":"291.6596","REF_FRAME":"TEME","DECAY_DATE":null,"TLE_LINE2":"2 47827  53.0561 233.8939 0001788  68.4583 291.6596 15.06397689 35319","ELEMENT_SET_NO":"999","BSTAR":"0.00005654200000","ECCENTRICITY":"0.00017880","ARG_OF_PERICENTER":"68.4583","CENTER_NAME":"EARTH","REV_AT_EPOCH":"3531","PERIAPSIS":"545.982"},{"REV_AT_EPOCH":"3461","CENTER_NAME":"EARTH","PERIAPSIS":"546.098","ECCENTRICITY":"0.00016130","BSTAR":"0.00016187000000","ELEMENT_SET_NO":"999","TLE_LINE2":"2 47828  53.0555 254.6733 0001613  68.6556 291.4605 15.06399588 34616","DECAY_DATE":null,"ARG_OF_PERICENTER":"68.6556","MEAN_MOTION_DDOT":"0.0000000000000","MEAN_ANOMALY":"291.4605","REF_FRAME":"TEME","EPOCH":"2021-10-19T09:04:04.732320","OBJECT_TYPE":"PAYLOAD","COUNTRY_CODE":"US","OBJECT_ID":"2021-018AT","APOAPSIS":"548.332","MEAN_ELEMENT_THEORY":"SGP4","SITE":"AFETR","CLASSIFICATION_TYPE":"U","RA_OF_ASC_NODE":"254.6733","MEAN_MOTION_DOT":"0.00002130","RCS_SIZE":"LARGE","SEMIMAJOR_AXIS":"6925.350","PERIOD":"95.592","OBJECT_NAME":"STARLINK-2415","TIME_SYSTEM":"UTC","FILE":"3171656","MEAN_MOTION":"15.06399588","INCLINATION":"53.0555","TLE_LINE1":"1 47828U 21018AT  21292.37783255  .00002130  00000-0  16187-3 0  9999","NORAD_CAT_ID":"47828","GP_ID":"187586429","LAUNCH_DATE":"2021-03-11","EPHEMERIS_TYPE":"0"},{"LAUNCH_DATE":"2021-03-11","EPHEMERIS_TYPE":"0","NORAD_CAT_ID":"47829","GP_ID":"187630465","TLE_LINE1":"1 47829U 21018AU  21292.59529787  .00001591  00000-0  12569-3 0  9992","FILE":"3172644","MEAN_MOTION":"15.06409428","INCLINATION":"53.0542","TIME_SYSTEM":"UTC","OBJECT_NAME":"STARLINK-2416","PERIOD":"95.592","MEAN_MOTION_DOT":"0.00001591","RCS_SIZE":"MEDIUM","SEMIMAJOR_AXIS":"6925.320","SITE":"AFETR","RA_OF_ASC_NODE":"253.7008","CLASSIFICATION_TYPE":"U","MEAN_ELEMENT_THEORY":"SGP4","APOAPSIS":"548.388","OBJECT_ID":"2021-018AU","COUNTRY_CODE":"US","OBJECT_TYPE":"PAYLOAD","EPOCH":"2021-10-19T14:17:13.735968","REF_FRAME":"TEME","MEAN_ANOMALY":"289.9815","MEAN_MOTION_DDOT":"0.0000000000000","ARG_OF_PERICENTER":"70.1361","TLE_LINE2":"2 47829  53.0542 253.7008 0001737  70.1361 289.9815 15.06409428 34976","DECAY_DATE":null,"ECCENTRICITY":"0.00017370","BSTAR":"0.00012569000000","ELEMENT_SET_NO":"999","PERIAPSIS":"545.982","CENTER_NAME":"EARTH","REV_AT_EPOCH":"3497"},{"PERIAPSIS":"546.017","REV_AT_EPOCH":"3497","CENTER_NAME":"EARTH","ARG_OF_PERICENTER":"75.4473","BSTAR":"0.00000511920000","ECCENTRICITY":"0.00017110","ELEMENT_SET_NO":"999","TLE_LINE2":"2 47830  53.0564 253.7157 0001711  75.4473 284.6706 15.06403840 34974","DECAY_DATE":null,"REF_FRAME":"TEME","MEAN_MOTION_DDOT":"0.0000000000000","MEAN_ANOMALY":"284.6706","COUNTRY_CODE":"US","OBJECT_ID":"2021-018AV","EPOCH":"2021-10-19T14:11:55.402080","OBJECT_TYPE":"PAYLOAD","MEAN_ELEMENT_THEORY":"SGP4","SITE":"AFETR","CLASSIFICATION_TYPE":"U","RA_OF_ASC_NODE":"253.7157","APOAPSIS":"548.387","OBJECT_NAME":"STARLINK-2419","TIME_SYSTEM":"UTC","RCS_SIZE":"LARGE","MEAN_MOTION_DOT":"-0.00000205","SEMIMAJOR_AXIS":"6925.337","PERIOD":"95.592","TLE_LINE1":"1 47830U 21018AV  21292.59161345 -.00000205  00000-0  51192-5 0  9995","MEAN_MOTION":"15.06403840","FILE":"3172644","INCLINATION":"53.0564","LAUNCH_DATE":"2021-03-11","EPHEMERIS_TYPE":"0","NORAD_CAT_ID":"47830","GP_ID":"187630215"},{"APOAPSIS":"548.214","MEAN_ELEMENT_THEORY":"SGP4","RA_OF_ASC_NODE":"228.9737","CLASSIFICATION_TYPE":"U","SITE":"AFETR","SEMIMAJOR_AXIS":"6925.315","RCS_SIZE":"LARGE","MEAN_MOTION_DOT":"0.00000090","PERIOD":"95.591","OBJECT_NAME":"STARLINK-2420","TIME_SYSTEM":"UTC","INCLINATION":"53.0533","FILE":"3171657","MEAN_MOTION":"15.06410791","TLE_LINE1":"1 47831U 21018AW  21292.53215126  .00000090  00000-0  24951-4 0  9990","NORAD_CAT_ID":"47831","GP_ID":"187586945","EPHEMERIS_TYPE":"0","LAUNCH_DATE":"2021-03-11","REV_AT_EPOCH":"3498","CENTER_NAME":"EARTH","PERIAPSIS":"546.147","ELEMENT_SET_NO":"999","BSTAR":"0.00002495100000","ECCENTRICITY":"0.00014920","DECAY_DATE":null,"TLE_LINE2":"2 47831  53.0533 228.9737 0001492  79.7569 280.3588 15.06410791 34983","ARG_OF_PERICENTER":"79.7569","MEAN_ANOMALY":"280.3588","MEAN_MOTION_DDOT":"0.0000000000000","REF_FRAME":"TEME","EPOCH":"2021-10-19T12:46:17.868864","OBJECT_TYPE":"PAYLOAD","COUNTRY_CODE":"US","OBJECT_ID":"2021-018AW"},{"NORAD_CAT_ID":"47832","GP_ID":"187586939","LAUNCH_DATE":"2021-03-11","EPHEMERIS_TYPE":"0","MEAN_MOTION":"15.06411112","FILE":"3171657","INCLINATION":"53.0554","TLE_LINE1":"1 47832U 21018AX  21292.34926517  .00000698  00000-0  65763-4 0  9993","MEAN_MOTION_DOT":"0.00000698","RCS_SIZE":"LARGE","SEMIMAJOR_AXIS":"6925.315","PERIOD":"95.591","OBJECT_NAME":"STARLINK-2422","TIME_SYSTEM":"UTC","APOAPSIS":"548.261","MEAN_ELEMENT_THEORY":"SGP4","SITE":"AFETR","CLASSIFICATION_TYPE":"U","RA_OF_ASC_NODE":"244.8026","EPOCH":"2021-10-19T08:22:56.510688","OBJECT_TYPE":"PAYLOAD","COUNTRY_CODE":"US","OBJECT_ID":"2021-018AX","MEAN_ANOMALY":"287.6218","MEAN_MOTION_DDOT":"0.0000000000000","REF_FRAME":"TEME","ECCENTRICITY":"0.00015610","BSTAR":"0.00006576300000","ELEMENT_SET_NO":"999","TLE_LINE2":"2 47832  53.0554 244.8026 0001561  72.4942 287.6218 15.06411112 34750","DECAY_DATE":null,"ARG_OF_PERICENTER":"72.4942","REV_AT_EPOCH":"3475","CENTER_NAME":"EARTH","PERIAPSIS":"546.098"},{"LAUNCH_DATE":"2021-03-11","EPHEMERIS_TYPE":"0","GP_ID":"187629965","NORAD_CAT_ID":"47833","TLE_LINE1":"1 47833U 21018AY  21292.57410834  .00000979  00000-0  84647-4 0  9993","FILE":"3172644","MEAN_MOTION":"15.06395644","INCLINATION":"53.0557","OBJECT_NAME":"STARLINK-2423","TIME_SYSTEM":"UTC","RCS_SIZE":"LARGE","MEAN_MOTION_DOT":"0.00000979","SEMIMAJOR_AXIS":"6925.362","PERIOD":"95.592","MEAN_ELEMENT_THEORY":"SGP4","SITE":"AFETR","CLASSIFICATION_TYPE":"U","RA_OF_ASC_NODE":"243.7937","APOAPSIS":"548.346","COUNTRY_CODE":"US","OBJECT_ID":"2021-018AY","EPOCH":"2021-10-19T13:46:42.960576","OBJECT_TYPE":"PAYLOAD","REF_FRAME":"TEME","MEAN_MOTION_DDOT":"0.0000000000000","MEAN_ANOMALY":"293.1439","ARG_OF_PERICENTER":"66.9720","ECCENTRICITY":"0.00016160","BSTAR":"0.00008464700000","ELEMENT_SET_NO":"999","TLE_LINE2":"2 47833  53.0557 243.7937 0001616  66.9720 293.1439 15.06395644 35171","DECAY_DATE":null,"PERIAPSIS":"546.108","REV_AT_EPOCH":"3517","CENTER_NAME":"EARTH"},{"EPHEMERIS_TYPE":"0","LAUNCH_DATE":"2021-03-11","NORAD_CAT_ID":"47834","GP_ID":"187630716","TLE_LINE1":"1 47834U 21018AZ  21292.58515837  .00000920  00000-0  80650-4 0  9990","INCLINATION":"53.0554","FILE":"3172644","MEAN_MOTION":"15.06408254","OBJECT_NAME":"STARLINK-2424","TIME_SYSTEM":"UTC","SEMIMAJOR_AXIS":"6925.323","MEAN_MOTION_DOT":"0.00000920","RCS_SIZE":"LARGE","PERIOD":"95.592","MEAN_ELEMENT_THEORY":"SGP4","CLASSIFICATION_TYPE":"U","RA_OF_ASC_NODE":"243.7406","SITE":"AFETR","APOAPSIS":"548.427","COUNTRY_CODE":"US","OBJECT_ID":"2021-018AZ","EPOCH":"2021-10-19T14:02:37.683168","OBJECT_TYPE":"PAYLOAD","REF_FRAME":"TEME","MEAN_MOTION_DDOT":"0.0000000000000","MEAN_ANOMALY":"285.9287","ARG_OF_PERICENTER":"74.1899","ELEMENT_SET_NO":"999","BSTAR":"0.00008065000000","ECCENTRICITY":"0.00017890","DECAY_DATE":null,"TLE_LINE2":"2 47834  53.0554 243.7406 0001789  74.1899 285.9287 15.06408254 35171","PERIAPSIS":"545.949","REV_AT_EPOCH":"3517","CENTER_NAME":"EARTH"},{"PERIOD":"95.591","RCS_SIZE":"LARGE","MEAN_MOTION_DOT":"0.00001616","SEMIMAJOR_AXIS":"6925.302","TIME_SYSTEM":"UTC","OBJECT_NAME":"STARLINK-2425","APOAPSIS":"548.274","SITE":"AFETR","RA_OF_ASC_NODE":"248.7012","CLASSIFICATION_TYPE":"U","MEAN_ELEMENT_THEORY":"SGP4","NORAD_CAT_ID":"47835","GP_ID":"187630968","LAUNCH_DATE":"2021-03-11","EPHEMERIS_TYPE":"0","FILE":"3172644","MEAN_MOTION":"15.06415270","INCLINATION":"53.0542","TLE_LINE1":"1 47835U 21018BA  21292.60035194  .00001616  00000-0  12733-3 0  9996","TLE_LINE2":"2 47835  53.0542 248.7012 0001599  63.4774 296.6379 15.06415270 35042","DECAY_DATE":null,"BSTAR":"0.00012733000000","ECCENTRICITY":"0.00015990","ELEMENT_SET_NO":"999","ARG_OF_PERICENTER":"63.4774","CENTER_NAME":"EARTH","REV_AT_EPOCH":"3504","PERIAPSIS":"546.059","OBJECT_TYPE":"PAYLOAD","EPOCH":"2021-10-19T14:24:30.407616","OBJECT_ID":"2021-018BA","COUNTRY_CODE":"US","MEAN_ANOMALY":"296.6379","MEAN_MOTION_DDOT":"0.0000000000000","REF_FRAME":"TEME"},{"GP_ID":"187631213","NORAD_CAT_ID":"47836","EPHEMERIS_TYPE":"0","LAUNCH_DATE":"2021-03-11","INCLINATION":"53.0542","FILE":"3172644","MEAN_MOTION":"15.06411478","TLE_LINE1":"1 47836U 21018BB  21292.59528606  .00002290  00000-0  17255-3 0  9993","PERIOD":"95.591","SEMIMAJOR_AXIS":"6925.313","MEAN_MOTION_DOT":"0.00002290","RCS_SIZE":"LARGE","TIME_SYSTEM":"UTC","OBJECT_NAME":"STARLINK-2426","APOAPSIS":"548.298","RA_OF_ASC_NODE":"243.6846","CLASSIFICATION_TYPE":"U","SITE":"AFETR","MEAN_ELEMENT_THEORY":"SGP4","OBJECT_TYPE":"PAYLOAD","EPOCH":"2021-10-19T14:17:12.715584","OBJECT_ID":"2021-018BB","COUNTRY_CODE":"US","MEAN_MOTION_DDOT":"0.0000000000000","MEAN_ANOMALY":"293.7654","REF_FRAME":"TEME","DECAY_DATE":null,"TLE_LINE2":"2 47836  53.0542 243.6846 0001616  66.3504 293.7654 15.06411478 35124","ELEMENT_SET_NO":"999","BSTAR":"0.00017255000000","ECCENTRICITY":"0.00016160","ARG_OF_PERICENTER":"66.3504","CENTER_NAME":"EARTH","REV_AT_EPOCH":"3512","PERIAPSIS":"546.059"}];
